YAOGAN-27               
1 40878U 15040A   25106.92827475 -.00000011  00000+0  80921-4 0  9991
2 40878 100.0877 107.5257 0008954 116.2128 243.9907 13.16046477461594
GAOFEN-9 01             
1 40894U 15047A   25106.91298127  .00004790  00000+0  60967-3 0  9995
2 40894  97.6828 155.8394 0029562  96.9730 263.4848 14.81703235517046
YAOGAN-28               
1 41026U 15064A   25106.93170065  .00033927  00000+0  14109-2 0  9994
2 41026  97.2499 252.2425 0012628 229.7463 130.2671 15.23629498525730
YAOGAN-29               
1 41038U 15069A   25106.84263991  .00001581  00000+0  20334-3 0  9992
2 41038  98.0393 128.9620 0001463  31.1062 329.0237 14.82563968507443
KENT RIDGE 1            
1 41167U 15077B   25106.80596186  .00011990  00000+0  51250-3 0  9991
2 41167  14.9787 188.2362 0008907 359.0731   0.9574 15.19522507516069
TELEOS-1                
1 41169U 15077D   25106.93509681  .00376764  00000+0  27761-2 0  9993
2 41169  14.9783 356.2812 0004491 350.6946   9.3299 15.70566209517919
GAOFEN-4                
1 41194U 15083A   25106.91224294 -.00000325  00000+0  00000+0 0  9992
2 41194   0.0490  27.3603 0001357  12.3005 239.7315  1.00269605 34255
JASON-3                 
1 41240U 16002A   25106.94786021 -.00000043  00000+0  78351-4 0  9996
2 41240  66.0412 300.6510 0007618 272.5058  87.5085 12.80930216432406
SENTINEL-3A             
1 41335U 16011A   25106.89696801  .00000528  00000+0  23613-3 0  9998
2 41335  98.6288 175.3529 0000980  92.5906 267.5387 14.26739024477272
ZIYUAN 3-2 (ZY 3-2)     
1 41556U 16033A   25106.90682808  .00030888  00000+0  13686-2 0  9991
2 41556  97.4204 184.7212 0005821 338.9838  21.1158 15.21552025493172
CARTOSAT-2C             
1 41599U 16040A   25106.92121981  .00023358  00000+0  11043-2 0  9997
2 41599  97.4269 167.9890 0013496 175.5856 184.5500 15.19311896488992
SKYSAT-C1               
1 41601U 16040C   25106.62167200  .00015010  00000+0  52205-3 0  9994
2 41601  97.0116 157.3661 0004685  98.5272 261.6500 15.29789617492553
LAPAN-A3                
1 41603U 16040E   25106.92427092  .00013538  00000+0  47608-3 0  9991
2 41603  97.1391 113.6501 0013190  99.7154 260.5578 15.29381517489581
BIROS                   
1 41604U 16040F   25106.80007000  .00046261  00000+0  60607-3 0  9995
2 41604  97.0917 135.7383 0005950  38.2567 321.9111 15.58434846491112
