[
  {
    "OBJECT_NAME": "YAOGAN-27",
    "OBJECT_ID": "2015-040A",
    "EPOCH": "2025-04-16T22:16:42.938400",
    "MEAN_MOTION": 13.16046477,
    "ECCENTRICITY": 0.0008954,
    "INCLINATION": 100.0877,
    "RA_OF_ASC_NODE": 107.5257,
    "ARG_OF_PERICENTER": 116.2128,
    "MEAN_ANOMALY": 243.9907,
    "EPHEMERIS_TYPE": 0,
    "CLASSIFICATION_TYPE": "U",
    "NORAD_CAT_ID": 40878,
    "ELEMENT_SET_NO": 999,
    "REV_AT_EPOCH": 46159,
    "BSTAR": 8.0921e-5,
    "MEAN_MOTION_DOT": -1.1e-7,
    "MEAN_MOTION_DDOT": 0
  },
  {
    "OBJECT_NAME": "GAOFEN-9 01",
    "OBJECT_ID": "2015-047A",
    "EPOCH": "2025-04-16T21:54:41.581728",
    "MEAN_MOTION": 14.81703235,
    "ECCENTRICITY": 0.0029562,
    "INCLINATION": 97.6828,
    "RA_OF_ASC_NODE": 155.8394,
    "ARG_OF_PERICENTER": 96.973,
    "MEAN_ANOMALY": 263.4848,
    "EPHEMERIS_TYPE": 0,
    "CLASSIFICATION_TYPE": "U",
    "NORAD_CAT_ID": 40894,
    "ELEMENT_SET_NO": 999,
    "REV_AT_EPOCH": 51704,
    "BSTAR": 0.00060967,
    "MEAN_MOTION_DOT": 4.79e-5,
    "MEAN_MOTION_DDOT": 0
  },
  {
    "OBJECT_NAME": "YAOGAN-28",
    "OBJECT_ID": "2015-064A",
    "EPOCH": "2025-04-16T22:21:38.936160",
    "MEAN_MOTION": 15.23629498,
    "ECCENTRICITY": 0.0012628,
    "INCLINATION": 97.2499,
    "RA_OF_ASC_NODE": 252.2425,
    "ARG_OF_PERICENTER": 229.7463,
    "MEAN_ANOMALY": 130.2671,
    "EPHEMERIS_TYPE": 0,
    "CLASSIFICATION_TYPE": "U",
    "NORAD_CAT_ID": 41026,
    "ELEMENT_SET_NO": 999,
    "REV_AT_EPOCH": 52573,
    "BSTAR": 0.0014109,
    "MEAN_MOTION_DOT": 0.00033927,
    "MEAN_MOTION_DDOT": 0
  },
  {
    "OBJECT_NAME": "YAOGAN-29",
    "OBJECT_ID": "2015-069A",
    "EPOCH": "2025-04-16T20:13:24.088224",
    "MEAN_MOTION": 14.82563968,
    "ECCENTRICITY": 0.0001463,
    "INCLINATION": 98.0393,
    "RA_OF_ASC_NODE": 128.962,
    "ARG_OF_PERICENTER": 31.1062,
    "MEAN_ANOMALY": 329.0237,
    "EPHEMERIS_TYPE": 0,
    "CLASSIFICATION_TYPE": "U",
    "NORAD_CAT_ID": 41038,
    "ELEMENT_SET_NO": 999,
    "REV_AT_EPOCH": 50744,
    "BSTAR": 0.00020334,
    "MEAN_MOTION_DOT": 1.581e-5,
    "MEAN_MOTION_DDOT": 0
  },
  {
    "OBJECT_NAME": "KENT RIDGE 1",
    "OBJECT_ID": "2015-077B",
    "EPOCH": "2025-04-16T19:20:35.104704",
    "MEAN_MOTION": 15.19522507,
    "ECCENTRICITY": 0.0008907,
    "INCLINATION": 14.9787,
    "RA_OF_ASC_NODE": 188.2362,
    "ARG_OF_PERICENTER": 359.0731,
    "MEAN_ANOMALY": 0.9574,
    "EPHEMERIS_TYPE": 0,
    "CLASSIFICATION_TYPE": "U",
    "NORAD_CAT_ID": 41167,
    "ELEMENT_SET_NO": 999,
    "REV_AT_EPOCH": 51606,
    "BSTAR": 0.0005125,
    "MEAN_MOTION_DOT": 0.0001199,
    "MEAN_MOTION_DDOT": 0
  },
  {
    "OBJECT_NAME": "TELEOS-1",
    "OBJECT_ID": "2015-077D",
    "EPOCH": "2025-04-16T22:26:32.364384",
    "MEAN_MOTION": 15.70566209,
    "ECCENTRICITY": 0.0004491,
    "INCLINATION": 14.9783,
    "RA_OF_ASC_NODE": 356.2812,
    "ARG_OF_PERICENTER": 350.6946,
    "MEAN_ANOMALY": 9.3299,
    "EPHEMERIS_TYPE": 0,
    "CLASSIFICATION_TYPE": "U",
    "NORAD_CAT_ID": 41169,
    "ELEMENT_SET_NO": 999,
    "REV_AT_EPOCH": 51791,
    "BSTAR": 0.0027761,
    "MEAN_MOTION_DOT": 0.00376764,
    "MEAN_MOTION_DDOT": 0
  },
  {
    "OBJECT_NAME": "GAOFEN-4",
    "OBJECT_ID": "2015-083A",
    "EPOCH": "2025-04-16T21:53:37.790016",
    "MEAN_MOTION": 1.00269605,
    "ECCENTRICITY": 0.0001357,
    "INCLINATION": 0.049,
    "RA_OF_ASC_NODE": 27.3603,
    "ARG_OF_PERICENTER": 12.3005,
    "MEAN_ANOMALY": 239.7315,
    "EPHEMERIS_TYPE": 0,
    "CLASSIFICATION_TYPE": "U",
    "NORAD_CAT_ID": 41194,
    "ELEMENT_SET_NO": 999,
    "REV_AT_EPOCH": 3425,
    "BSTAR": 0,
    "MEAN_MOTION_DOT": -3.25e-6,
    "MEAN_MOTION_DDOT": 0
  },
  {
    "OBJECT_NAME": "JASON-3",
    "OBJECT_ID": "2016-002A",
    "EPOCH": "2025-04-16T22:44:55.122144",
    "MEAN_MOTION": 12.80930216,
    "ECCENTRICITY": 0.0007618,
    "INCLINATION": 66.0412,
    "RA_OF_ASC_NODE": 300.651,
    "ARG_OF_PERICENTER": 272.5058,
    "MEAN_ANOMALY": 87.5085,
    "EPHEMERIS_TYPE": 0,
    "CLASSIFICATION_TYPE": "U",
    "NORAD_CAT_ID": 41240,
    "ELEMENT_SET_NO": 999,
    "REV_AT_EPOCH": 43240,
    "BSTAR": 7.8351e-5,
    "MEAN_MOTION_DOT": -4.3e-7,
    "MEAN_MOTION_DDOT": 0
  },
  {
    "OBJECT_NAME": "SENTINEL-3A",
    "OBJECT_ID": "2016-011A",
    "EPOCH": "2025-04-16T21:31:38.036064",
    "MEAN_MOTION": 14.26739024,
    "ECCENTRICITY": 9.8e-5,
    "INCLINATION": 98.6288,
    "RA_OF_ASC_NODE": 175.3529,
    "ARG_OF_PERICENTER": 92.5906,
    "MEAN_ANOMALY": 267.5387,
    "EPHEMERIS_TYPE": 0,
    "CLASSIFICATION_TYPE": "U",
    "NORAD_CAT_ID": 41335,
    "ELEMENT_SET_NO": 999,
    "REV_AT_EPOCH": 47727,
    "BSTAR": 0.00023613,
    "MEAN_MOTION_DOT": 5.28e-6,
    "MEAN_MOTION_DDOT": 0
  },
  {
    "OBJECT_NAME": "ZIYUAN 3-2 (ZY 3-2)",
    "OBJECT_ID": "2016-033A",
    "EPOCH": "2025-04-16T21:45:49.946112",
    "MEAN_MOTION": 15.21552025,
    "ECCENTRICITY": 0.0005821,
    "INCLINATION": 97.4204,
    "RA_OF_ASC_NODE": 184.7212,
    "ARG_OF_PERICENTER": 338.9838,
    "MEAN_ANOMALY": 21.1158,
    "EPHEMERIS_TYPE": 0,
    "CLASSIFICATION_TYPE": "U",
    "NORAD_CAT_ID": 41556,
    "ELEMENT_SET_NO": 999,
    "REV_AT_EPOCH": 49317,
    "BSTAR": 0.0013686,
    "MEAN_MOTION_DOT": 0.00030888,
    "MEAN_MOTION_DDOT": 0
  },
  {
    "OBJECT_NAME": "CARTOSAT-2C",
    "OBJECT_ID": "2016-040A",
    "EPOCH": "2025-04-16T22:06:33.391584",
    "MEAN_MOTION": 15.19311896,
    "ECCENTRICITY": 0.0013496,
    "INCLINATION": 97.4269,
    "RA_OF_ASC_NODE": 167.989,
    "ARG_OF_PERICENTER": 175.5856,
    "MEAN_ANOMALY": 184.55,
    "EPHEMERIS_TYPE": 0,
    "CLASSIFICATION_TYPE": "U",
    "NORAD_CAT_ID": 41599,
    "ELEMENT_SET_NO": 999,
    "REV_AT_EPOCH": 48899,
    "BSTAR": 0.0011043,
    "MEAN_MOTION_DOT": 0.00023358,
    "MEAN_MOTION_DDOT": 0
  },
  {
    "OBJECT_NAME": "SKYSAT-C1",
    "OBJECT_ID": "2016-040C",
    "EPOCH": "2025-04-16T14:55:12.460800",
    "MEAN_MOTION": 15.29789617,
    "ECCENTRICITY": 0.0004685,
    "INCLINATION": 97.0116,
    "RA_OF_ASC_NODE": 157.3661,
    "ARG_OF_PERICENTER": 98.5272,
    "MEAN_ANOMALY": 261.65,
    "EPHEMERIS_TYPE": 0,
    "CLASSIFICATION_TYPE": "U",
    "NORAD_CAT_ID": 41601,
    "ELEMENT_SET_NO": 999,
    "REV_AT_EPOCH": 49255,
    "BSTAR": 0.00052205,
    "MEAN_MOTION_DOT": 0.0001501,
    "MEAN_MOTION_DDOT": 0
  },
  {
    "OBJECT_NAME": "LAPAN-A3",
    "OBJECT_ID": "2016-040E",
    "EPOCH": "2025-04-16T22:10:57.007488",
    "MEAN_MOTION": 15.29381517,
    "ECCENTRICITY": 0.001319,
    "INCLINATION": 97.1391,
    "RA_OF_ASC_NODE": 113.6501,
    "ARG_OF_PERICENTER": 99.7154,
    "MEAN_ANOMALY": 260.5578,
    "EPHEMERIS_TYPE": 0,
    "CLASSIFICATION_TYPE": "U",
    "NORAD_CAT_ID": 41603,
    "ELEMENT_SET_NO": 999,
    "REV_AT_EPOCH": 48958,
    "BSTAR": 0.00047608,
    "MEAN_MOTION_DOT": 0.00013538,
    "MEAN_MOTION_DDOT": 0
  },
  {
    "OBJECT_NAME": "BIROS",
    "OBJECT_ID": "2016-040F",
    "EPOCH": "2025-04-16T19:12:06.048000",
    "MEAN_MOTION": 15.58434846,
    "ECCENTRICITY": 0.000595,
    "INCLINATION": 97.0917,
    "RA_OF_ASC_NODE": 135.7383,
    "ARG_OF_PERICENTER": 38.2567,
    "MEAN_ANOMALY": 321.9111,
    "EPHEMERIS_TYPE": 0,
    "CLASSIFICATION_TYPE": "U",
    "NORAD_CAT_ID": 41604,
    "ELEMENT_SET_NO": 999,
    "REV_AT_EPOCH": 49111,
    "BSTAR": 0.00060607,
    "MEAN_MOTION_DOT": 0.00046261,
    "MEAN_MOTION_DDOT": 0
  }
]
